{
    "links": {
        "self": "http://www.neowsapp.com/rest/v1/neo/3092273?api_key=iIulBulltgU6a56xZRHN4H3l9WmuAYTsLGpBGhQ2"
    },
    "id": "3092273",
    "neo_reference_id": "3092273",
    "name": "(2000 RK60)",
    "designation": "2000 RK60",
    "nasa_jpl_url": "http://ssd.jpl.nasa.gov/sbdb.cgi?sstr=3092273",
    "absolute_magnitude_h": 21.6,
    "estimated_diameter": {
        "kilometers": {
            "estimated_diameter_min": 0.1272198785,
            "estimated_diameter_max": 0.2844722965
        },
        "meters": {
            "estimated_diameter_min": 127.2198785394,
            "estimated_diameter_max": 284.4722965033
        },
        "miles": {
            "estimated_diameter_min": 0.0790507431,
            "estimated_diameter_max": 0.1767628354
        },
        "feet": {
            "estimated_diameter_min": 417.3880663071,
            "estimated_diameter_max": 933.3080892598
        }
    },
    "is_potentially_hazardous_asteroid": false,
    "close_approach_data": [
        {
            "close_approach_date": "2000-08-28",
            "close_approach_date_full": "2000-Aug-28 10:47",
            "epoch_date_close_approach": 967459620000,
            "relative_velocity": {
                "kilometers_per_second": "5.5823923212",
                "kilometers_per_hour": "20096.6123564753",
                "miles_per_hour": "12487.2533833888"
            },
            "miss_distance": {
                "astronomical": "0.138437208",
                "lunar": "53.852073912",
                "kilometers": "20709911.44554696",
                "miles": "12868542.250029648"
            },
            "orbiting_body": "Earth"
        },
        {
            "close_approach_date": "2016-10-01",
            "close_approach_date_full": "2016-Oct-01 02:53",
            "epoch_date_close_approach": 1475290380000,
            "relative_velocity": {
                "kilometers_per_second": "17.4016098866",
                "kilometers_per_hour": "62645.7955917186",
                "miles_per_hour": "38925.6611553098"
            },
            "miss_distance": {
                "astronomical": "0.4730255594",
                "lunar": "184.0069426066",
                "kilometers": "70763616.141798478",
                "miles": "43970472.1326278764"
            },
            "orbiting_body": "Earth"
        }
    ],
    "orbital_data": {
        "orbit_id": "13",
        "orbit_determination_date": "2017-04-06 09:16:52",
        "first_observation_date": "2000-09-06",
        "last_observation_date": "2000-10-04",
        "data_arc_in_days": 28,
        "observations_used": 70,
        "orbit_uncertainty": "7",
        "minimum_orbit_intersection": ".13096",
        "jupiter_tisserand_invariant": "3.510",
        "epoch_osculation": "2459000.5",
        "eccentricity": ".4892647446210011",
        "semi_major_axis": "2.177482816123412",
        "inclination": "6.611870587930385",
        "ascending_node_longitude": "196.8429473225814",
        "orbital_period": "1173.628187204548",
        "perihelion_distance": "1.112117242176173",
        "perihelion_argument": "133.9414155052586",
        "aphelion_distance": "3.242848390070652",
        "perihelion_time": "2458823.501612899412",
        "mean_anomaly": "54.2926797864187",
        "mean_motion": ".3067410990336556",
        "equinox": "J2000",
        "orbit_class": {
            "orbit_class_type": "AMO",
            "orbit_class_description": "Near-Earth asteroid orbits similar to that of 1221 Amor",
            "orbit_class_range": "1.017 AU < q (perihelion) < 1.3 AU"
        }
    },
    "is_sentry_object": false
}